#aV2024  4 14  0  0  0.00000000     288 DD+AD WGS84 FIT  NGA
## 2310      0.00000000   300.00000000 60414 0.0000000000000
+   32     1  2  3  4  5  6  7  8  9 10 11 12 13 14 15 16 17
+         18 19 20 21 22 23 24 25 26 27 28 29 30 31 32  0  0
+          0  0  0  0  0  0  0  0  0  0  0  0  0  0  0  0  0
+          0  0  0  0  0  0  0  0  0  0  0  0  0  0  0  0  0
+          0  0  0  0  0  0  0  0  0  0  0  0  0  0  0  0  0
++         2  2  2  2  2  2  2  2  2  2  2  2  2  2  2  2  2
++         2  2  2  2  2  2  2  2  2  2  2  2  2  2  2  0  0
++         0  0  0  0  0  0  0  0  0  0  0  0  0  0  0  0  0
++         0  0  0  0  0  0  0  0  0  0  0  0  0  0  0  0  0
++         0  0  0  0  0  0  0  0  0  0  0  0  0  0  0  0  0
%c cc cc ccc ccc cccc cccc cccc cccc ccccc ccccc ccccc ccccc
%c cc cc ccc ccc cccc cccc cccc cccc ccccc ccccc ccccc ccccc
%f  0.0000000  0.000000000  0.00000000000  0.000000000000000
%f  0.0000000  0.000000000  0.00000000000  0.000000000000000
%i    0    0    0    0      0      0      0      0         0
%i    0    0    0    0      0      0      0      0         0
/*      NGA, ST. LOUIS,MO.                                  
/*   EPHEMERIS COMPUTED FROM 2 DAYS OF DATA                 
/*   EPOCHA v9 SMOOTHER                                     
/*   G2296 IERS2010 SATIGS SATAPC                           
*  2024  4 14 20 10  0.00000000
P  1  22984.808757   9623.250457   9320.545493    179.985259                    
V  1   8849.655173   8535.418343 -29202.559876      0.024808                    
P  2  22572.016255  14214.674062   -917.548949   -453.347151                    
V  2  -2714.216950   1157.867739 -31697.325485      0.064821                    
P  3  12395.842907  11620.169974  20301.336166    310.713100                    
V  3  -3397.859937  25801.473380 -12481.044846      0.209580                    
P  4  19893.768581   4614.101692  17072.088269    338.805547                    
V  4 -19343.849535   9705.876082  19808.019894      0.087622                    
P  5  -6531.736000 -23196.518961 -11236.085980   -169.140118                    
V  5   2873.949800 -13893.470206  27527.808038     -0.013703                    
P  6   6538.086276 -13233.090538  22136.297917    321.799337                    
V  6  22573.019275  16367.162221   3234.520134     -0.179963                    
P  7  21452.330238   1911.875599 -15337.009924   -107.322510                    
V  7  15242.242433  13463.211665  21803.845390     -0.084665                    
P  8  12094.607119  10811.469789 -21201.842656    121.937081                    
V  8 -23669.181865  12211.046160  -6889.619582      0.231498                    
P  9  24810.566642  -6784.169638   6656.119196    160.454205                    
V  9  -6501.623484   6189.626455  30130.832932      0.136421                    
P 10 -10582.840761  20406.094979 -12812.140141     -8.917497                    
V 10   -338.891458 -16805.646107 -26374.216523     -0.044421                    
P 11  -5948.697904 -19622.652493  16932.494475   -636.424708                    
V 11  17812.888839  12013.537327  20159.191263     -0.105067                    
P 12 -11411.342734 -13674.122457  19436.675000   -496.581263                    
V 12   5429.645725 -24718.443172 -13941.933482     -0.034360                    
P 13  -2237.968738 -15012.768630 -21986.552342    642.732207                    
V 13  26391.365358  -7419.588339   2626.490077      0.031289                    
P 14  13268.768336 -16966.874394 -15379.603358    376.328694                    
V 14     -3.998796  19849.445742 -22061.090201      0.095348                    
P 15 -13275.076748 -10056.254668 -21215.269142    148.439340                    
V 15  21363.443198 -14621.146940  -6392.209420      0.040678                    
P 16    986.046462  25159.989764  -8027.819284   -316.704606                    
V 16  -4637.087863   9167.530210  29830.748427      0.094128                    
P 17  22126.098717 -13414.391012   6769.052445    711.167543                    
V 17   8271.292546   -767.622348 -30298.150779     -0.004647                    
P 18 -20569.848068  -1061.386017 -16861.553347   -594.469439                    
V 18 -16256.950994 -13878.475417  20504.230583     -0.066366                    
P 19  15671.977859 -15551.855788  14297.470924    468.221906                    
V 19  18372.038305  -3719.226772 -24244.117136      0.053382                    
P 20  -1434.337489 -26592.887214    900.947563    380.177515                    
V 20   2996.433686    835.650608  31462.113154     -0.013895                    
P 21  20337.435687  16729.708780  -5904.743206    127.197324                    
V 21  -7769.644653  -2328.780182 -29969.852959     -0.016150                    
P 22  10186.942285 -23155.776735  -8139.642822      0.516858                    
V 22    382.260663  11100.601470 -29286.479690     -0.056086                    
P 23 -14379.226795   8900.677005 -20405.898428    201.011792                    
V 23    866.633975 -25969.436506 -12109.592433      0.092240                    
P 24 -21304.839044 -15823.834681  -4033.702157   -459.346343                    
V 24   5566.974207   -466.390951 -30340.355509     -0.043922                    
P 25 -15091.200465  -2606.238235  21367.647760    493.755797                    
V 25   2308.831977 -27875.208781  -1482.878880      0.008474                    
P 26  -4423.474953  25414.224225   5297.915156    166.657171                    
V 26  -3820.127094  -7090.552108  30338.948839     -0.050706                    
P 27   -591.542757  16426.939412 -21062.691554    -18.632106                    
V 27 -24159.536564  10123.595485   9114.832368     -0.022999                    
P 28  -8944.643621  12287.629353  21767.044149   -203.391825                    
V 28 -22973.081957 -15425.690261   -735.552552     -0.151216                    
P 29 -24989.741802   2816.170201   8660.163697   -601.866351                    
V 29   9606.479906  -5845.014522  29330.596281      0.012357                    
P 30  14338.820448  -8405.889221 -20622.547863   -405.218942                    
V 30  21083.029688  16160.050183   7748.295018      0.055870                    
P 31    953.407742  17827.654141  19324.384266   -228.012301                    
V 31 -21057.393973 -13826.924073  14035.845364      0.000394                    
P 32 -19439.631632  15784.612017   8753.077151   -618.097269                    
V 32 -11000.268619   2156.095383 -29212.908779     -0.004436                    
EOF
